140P/Bowell-Skiff,e,3.8340,343.2765,172.8718,6.429540,0.0604553,0.69152610,128.8073,06/05.0/2021,2000,g 11.5,6.0
# From MPEC 2021-AJ0
141P/Machholz,e,13.9449,241.8452,153.5493,3.057275,0.1843752,0.73574275,31.4757,06/05.0/2021,2000,g 14.7,4.0
# From MPC 71683
142P/Ge-Wang,e,12.2507,175.9326,173.9503,5.002305,0.0880945,0.49761977,2.0611,06/05.0/2021,2000,g  9.0,4.0
# From MPEC 2021-BE3
143P/Kowal-Mrkos,e,4.6980,245.2251,320.3985,4.282347,0.1112196,0.41077579,125.3032,06/05.0/2021,2000,g 13.5,2.0
# From MPC104795
144P/Kushida,e,3.9412,243.3011,216.2573,3.819046,0.1320601,0.63625003,232.6126,06/05.0/2021,2000,g  8.5,8.0
# From MPC108598
145P/Shoemaker-Levy,e,11.2725,26.7879,10.2428,4.138591,0.1170645,0.54142914,160.6917,06/05.0/2021,2000,g 13.5,4.0
# From MPC100284
146P/Shoemaker-LINEAR,e,23.0956,53.3988,316.9433,4.032269,0.1217250,0.64700674,219.0911,06/05.0/2021,2000,g 15.0,4.0
# From MPC 75720
147P/Kushida-Muramatsu,e,2.3354,93.0267,349.8600,3.994522,0.1234545,0.22983140,246.8240,06/05.0/2021,2000,g 14.0,4.0
# From MPEC 2014-R70
148P/Anderson-LINEAR,e,3.6584,89.2581,7.8458,3.624149,0.1428549,0.55009986,306.6510,06/05.0/2021,2000,g  9.0,4.0
# From MPC 75720
149P/Mueller,e,31.2417,144.6933,45.1128,4.352947,0.1085248,0.39771370,89.9988,06/05.0/2021,2000,g  8.0,8.0
# From MPC 75720
150P/LONEOS,e,18.5060,272.3812,245.5580,3.879594,0.1289807,0.54704514,229.3535,06/05.0/2021,2000,g 13.5,4.0
# From MPEC 2015-Q71
151P/Helin,e,4.7285,143.1565,216.0491,5.763634,0.0712294,0.57347460,147.0448,06/05.0/2021,2000,g 10.0,6.0
# From MPEC 2021-F20
152P/Helin-Lawrence,e,9.8798,91.8613,163.9050,4.478175,0.1040046,0.30885130,336.8587,06/05.0/2021,2000,g 12.6,4.0
# From MPC 46101
153P/Ikeya-Zhang,e,27.8149,93.1496,35.0991,50.65985,0.0027334,0.98962582,0.0000,03/06.2992/2002,2000,g  9.0,4.0
# From MPC 87068
154P/Brewington,e,17.6327,343.0357,47.8385,4.802851,0.0936387,0.67562513,256.5200,06/05.0/2021,2000,g  2.5,12.0
# From MPEC 2021-F20
155P/Shoemaker,e,6.3963,97.1929,14.6248,6.578627,0.0584119,0.72621518,33.1837,06/05.0/2021,2000,g 13.8,4.0
# From MPEC 2021-L04
156P/Russell-LINEAR,e,17.2622,35.3647,0.4374,3.460881,0.1530820,0.61483094,30.4810,06/05.0/2021,2000,g 15.5,2.0
# From MPC104795
157P/Tritton,e,12.4711,287.7267,154.8791,3.550896,0.1472981,0.55827312,292.0702,06/05.0/2021,2000,g 10.0,4.0
# From MPEC 2016-K18
158P/Kowal-LINEAR,e,8.0175,135.5243,172.0924,4.980167,0.0886826,0.03635087,2.2873,06/05.0/2021,2000,g  9.0,4.0
# From MPEC 2021-F20
159P/LONEOS,e,23.4655,54.9822,4.5755,5.854367,0.0695800,0.38173088,77.2368,06/05.0/2021,2000,g 10.0,4.0
# From MPEC 2021-J28
160P/LINEAR,e,15.6168,333.3597,12.7053,3.774278,0.1344167,0.52630425,74.0082,06/05.0/2021,2000,g 15.5,2.0
# From MPC 75721
161P/Hartley-IRAS,e,95.7815,1.5392,46.9481,7.724881,0.0459057,0.83476874,268.0558,06/05.0/2021,2000,g  8.5,6.0
# From MPEC 2021-L04
162P/Siding Spring,e,27.5544,30.9080,357.1431,3.091045,0.1813619,0.58293585,32.4947,06/05.0/2021,2000,g 12.0,4.0
# From MPEC 2020-HN5
163P/NEAT,e,12.7084,102.0864,349.6131,3.767726,0.1347675,0.45186019,90.2898,06/05.0/2021,2000,g 14.5,4.0
# From MPEC 2021-F20
164P/Christensen,e,16.2559,88.2910,325.8353,3.656779,0.1409470,0.54003990,155.1268,06/05.0/2021,2000,g 11.0,4.0
# From MPC 75721
165P/LINEAR,e,15.8962,0.8317,126.0361,17.88105,0.0130351,0.61491977,100.2586,06/05.0/2021,2000,g 11.5,2.0
# From MPC 75722
166P/NEAT,e,15.3687,64.4478,321.4541,13.82033,0.0191834,0.38336347,133.5328,06/05.0/2021,2000,g  5.5,4.0
# From MPC 75722
167P/CINEOS,e,19.1197,295.6619,344.4900,16.21318,0.0150974,0.27216099,110.6563,06/05.0/2021,2000,g  9.5,2.0
# From MPC102101
168P/Hergenrother,e,21.6201,355.4532,14.9978,3.582273,0.1453671,0.62091204,97.3487,06/05.0/2021,2000,g 15.5,4.0
# From MPEC 2021-L04
169P/NEAT,e,11.2984,176.1037,218.0504,2.601309,0.2349180,0.76817807,266.0956,06/05.0/2021,2000,g 16.0,2.0
# From MPC 89012
170P/Christensen,e,10.1250,142.9220,225.6108,4.198680,0.1145605,0.30377512,281.5049,06/05.0/2021,2000,g 12.0,4.0
# From MPC102102
171P/Spahr,e,21.9345,101.6950,347.0831,3.555448,0.1470153,0.50158658,128.4428,06/05.0/2021,2000,g 13.5,4.0
# From MPEC 2021-BE3
172P/Yeung,e,11.2287,30.8922,209.4134,4.212876,0.1139819,0.20549291,176.1188,06/05.0/2021,2000,g 13.0,4.0
# From MPEC 2021-J28
173P/Mueller,e,16.4949,100.4029,29.2261,5.704606,0.0723379,0.26078935,345.8872,06/05.0/2021,2000,g  7.5,4.0
# From MPC 92985
174P/Echeclus,e,4.3433,173.2219,163.0850,10.71827,0.0280878,0.45740099,62.7191,06/05.0/2021,2000,g  9.4,2.0
# From MPC114608
175P/Hergenrother,e,6.0720,123.5047,56.8726,3.448676,0.1538953,0.43444344,93.9354,06/05.0/2021,2000,g 14.0,4.0
# From MPC 89015
176P/LINEAR,e,0.2348,345.9001,35.0034,3.194032,0.1726614,0.19305742,267.3848,06/05.0/2021,2000,g 15.1,2.0
# From MPEC 2020-L06
177P/Barnard,e,31.2804,272.2489,60.2447,24.42042,0.0081672,0.95529971,44.0160,06/05.0/2021,2000,g 15.0,4.0
# From MPEC 2021-F20
178P/Hug-Bell,e,11.0888,102.8732,297.7930,3.631956,0.1423945,0.48204281,46.0435,06/05.0/2021,2000,g 14.6,4.0
# From MPC 75723
179P/Jedicke,e,19.8982,115.5213,296.7798,5.935502,0.0681582,0.30609196,335.5761,06/05.0/2021,2000,g  2.5,8.0
# From MPC100284
180P/NEAT,e,16.8661,84.5672,94.8071,3.863000,0.1298126,0.35305372,260.3431,06/05.0/2021,2000,g 11.0,4.0
# From MPC 89012
181P/Shoemaker-Levy,e,17.4862,35.4108,336.2407,3.872804,0.1293200,0.70055493,331.8383,06/05.0/2021,2000,g 11.5,4.0
# From MPEC 2014-J10
182P/LONEOS,e,16.2232,72.5089,54.1322,2.952618,0.1942644,0.66307615,293.7063,06/05.0/2021,2000,g 18.0,4.0
# From MPC110085
183P/Korlevic-Juric,e,18.7774,4.5870,166.2225,4.540256,0.1018787,0.13647011,130.3124,06/05.0/2021,2000,g 12.5,2.0
# From MPEC 2020-W26
184P/Lovas,e,4.5732,173.2523,186.4532,3.793542,0.1333941,0.55097512,29.5852,06/05.0/2021,2000,g 13.5,4.0
# From MPC109593
185P/Petriew,e,14.0062,214.0984,181.8744,3.098923,0.1806708,0.69924324,221.2184,06/05.0/2021,2000,g 15.0,4.0
# From MPEC 2020-W26
186P/Garradd,e,28.8582,326.6366,278.2050,4.947139,0.0895721,0.12168744,72.8276,06/05.0/2021,2000,g  7.5,4.0
# From MPEC 2020-SI8
187P/LINEAR,e,13.6343,109.9190,131.8651,4.569645,0.1008975,0.15209604,112.6617,06/05.0/2021,2000,g  9.0,4.0
# From MPC106349
188P/LINEAR-Mueller,e,10.5243,358.9616,26.5637,4.374234,0.1077336,0.41584435,168.9500,06/05.0/2021,2000,g 11.5,4.0
# From MPC106349
189P/NEAT,e,20.0701,281.7320,16.2874,2.946640,0.1948559,0.58875634,272.3552,06/05.0/2021,2000,g 19.0,4.0
# From MPEC 2020-K19
190P/Mueller,e,2.1743,335.5788,50.2781,4.234113,0.1131255,0.52139442,213.0983,06/05.0/2021,2000,g 13.0,4.0
# From MPEC 2021-BE3
191P/McNaught,e,8.8428,98.2321,284.0110,3.634128,0.1422669,0.38577417,10.9376,06/05.0/2021,2000,g 13.0,4.0
# From MPC 75724
192P/Shoemaker-Levy,e,24.5570,51.6222,312.9616,6.476356,0.0598009,0.77321101,295.1469,06/05.0/2021,2000,g 15.0,4.0
# From MPC 92277
193P/LINEAR-NEAT,e,10.6882,335.1752,8.1327,3.579780,0.1455190,0.39438448,348.1621,06/05.0/2021,2000,g 14.0,4.0
# From MPC 98566
194P/LINEAR,e,11.4196,350.7534,131.3506,3.982474,0.1240151,0.58271469,238.9787,06/05.0/2021,2000,g 16.0,4.0
# From MPC 75724
195P/Hill,e,36.3351,243.1191,249.3236,6.502834,0.0594361,0.31334229,269.9834,06/05.0/2021,2000,g  8.5,4.0
# From MPC 92985
196P/Tichy,e,19.2932,24.1681,12.2234,3.801509,0.1329750,0.42853739,291.9315,06/05.0/2021,2000,g 13.5,4.0
# From MPC 94676
197P/LINEAR,e,25.5355,66.3843,188.7481,2.867709,0.2029558,0.62960632,248.2464,06/05.0/2021,2000,g 16.5,2.0
# From NK 1596
198P/ODAS,e,1.3387,358.2533,69.1968,3.598858,0.1443634,0.44337458,130.5355,06/05.0/2021,2000,g  9.0,4.0
# From MPC 75725
199P/Shoemaker,e,24.9324,92.3820,191.6641,5.893635,0.0688857,0.50602073,305.3134,06/05.0/2021,2000,g 10.0,4.0
# From MPEC 2021-F20
200P/Larsen,e,12.1006,234.7915,134.0894,4.941011,0.0897388,0.33255601,60.7394,06/05.0/2021,2000,g  9.0,4.0
# From MPC 93588
201P/LONEOS,e,5.7390,19.7491,41.5435,3.353508,0.1604926,0.63698512,1.4968,06/05.0/2021,2000,g 14.0,4.0
# From MPC103849
202P/Scotti,e,2.0750,178.3290,277.3480,4.051619,0.1208540,0.26814005,229.0905,06/05.0/2021,2000,g 13.5,4.0
# From MPEC 2021-F20
203P/Korlevic,e,2.9730,290.3441,154.8156,4.671116,0.0976277,0.31514882,44.6397,06/05.0/2021,2000,g 12.7,4.0
# From MPC 98566
204P/LINEAR-NEAT,e,6.6063,108.6498,356.0910,3.596417,0.1445104,0.48809191,283.5356,06/05.0/2021,2000,g 14.0,4.0
# From MPC 98566
205P/Giacobini,e,15.3045,179.6051,154.2100,3.542239,0.1478384,0.56803249,327.1153,06/05.0/2021,2000,g 13.0,4.0
# From MPC 75725
206P/Barnard-Boattini,e,33.6334,202.3463,189.4730,3.487522,0.1513313,0.55132758,13.9982,06/05.0/2021,2000,g 19.0,4.0
# From MPC 75725
207P/NEAT,e,10.1790,198.4844,272.8988,3.869488,0.1294863,0.75949062,234.2704,06/05.0/2021,2000,g 16.0,4.0
# From MPEC 2020-W26
208P/McMillan,e,4.4106,36.3470,310.4489,4.045517,0.1211276,0.37381389,217.6358,06/05.0/2021,2000,g 12.5,4.0
# From MPC 90771
209P/LINEAR,e,21.2564,62.7723,152.4676,2.959987,0.1935394,0.67307844,140.0120,06/05.0/2021,2000,g 17.0,2.0
# From MPC105242
210P/Christensen,e,10.2625,93.8317,345.8984,3.164427,0.1750900,0.83319898,74.0808,06/05.0/2021,2000,g 13.5,4.0
# From MPC 96868
211P/Hill,e,18.9213,117.1355,4.2404,3.546298,0.1475846,0.34335782,288.1872,06/05.0/2021,2000,g 12.5,4.0
# From MPEC 2021-F20
212P/NEAT,e,22.2768,98.3547,14.0853,3.886748,0.1286247,0.58847995,224.2439,06/05.0/2021,2000,g 17.0,2.0
# From MPC114608
213P/Van Ness,e,10.3826,311.2996,5.6424,3.347789,0.1609040,0.40823892,216.9434,06/05.0/2021,2000,g 10.5,4.0
# From MPC 92986
214P/LINEAR,e,15.1836,348.2518,190.2402,3.617701,0.1432370,0.48579840,291.4848,06/05.0/2021,2000,g 13.0,4.0
# From MPC100284
216P/LINEAR,e,9.0589,359.8089,151.3503,3.868350,0.1295434,0.44652433,237.3514,06/05.0/2021,2000,g 13.0,4.0
# From MPC108598
217P/LINEAR,e,12.8644,125.4777,246.8450,3.950696,0.1255145,0.68874952,178.0395,06/05.0/2021,2000,g 12.0,4.0
# From MPEC 2020-K19
218P/LINEAR,e,2.7266,175.9649,59.7697,3.093944,0.1811071,0.62203874,44.2296,06/05.0/2021,2000,g 16.0,4.0
# From MPC100284
